1 25420U 98046H   15263.79870652  .00000058  00000-0  73294-4 0  9993,2 25420  45.0007   6.7418 0005492 187.2875 314.4379 14.32017629893955
1 25420U 98046H   15265.24022278  .00000063  00000-0  74954-4 0  9998,2 25420  45.0007 359.9733 0005614 194.6410 185.6531 14.32018073894167
1 25420U 98046H   15266.50608494  .00000073  00000-0  78851-4 0  9999,2 25420  45.0006 354.0296 0005720 200.9826 231.4670 14.32018697894342
1 25420U 98046H   15266.72744909 +.00000076 +00000-0 +79799-4 0  9990,2 25420 045.0006 352.9903 0005732 202.0168 292.7258 14.32018824893285
1 25420U 98046H   15267.77724487  .00000108  00000-0  91632-4 0  9991,2 25420  45.0005 348.0609 0005815 207.0971 304.8505 14.32019648894525
1 25420U 98046H   15269.23185671  .00000138  00000-0  10263-3 0  9993,2 25420  45.0004 341.2308 0005933 214.1048 244.0025 14.32020779894732
1 25420U 98046H   15270.48451480  .00000185  00000-0  12002-3 0  9991,2 25420  45.0004 335.3489 0006022 220.1443 221.9955 14.32021898894911
1 25420U 98046H   15271.54313182  .00000230  00000-0  13653-3 0  9999,2 25420  45.0003 330.3782 0006088 225.1123 279.7626 14.32022868895064
1 25420U 98046H   15271.68235164 +.00000236 +00000-0 +13872-3 0  9996,2 25420 045.0003 329.7244 0006095 225.7411 277.5441 14.32023003893996
1 25420U 98046H   15273.19758030  .00000297  00000-0  16143-3 0  9997,2 25420  45.0001 322.6095 0006190 232.7819 169.4783 14.32024419895303
1 25420U 98046H   15274.54394539  .00000373  00000-0  18930-3 0  9998,2 25420  44.9999 316.2877 0006246 238.9103 270.9528 14.32025997895497
1 25420U 98046H   15274.60760442 +.00000376 +00000-0 +19065-3 0  9998,2 25420 044.9999 315.9888 0006249 239.2127 239.1482 14.32026082894411
1 25420U 98046H   15276.19485729  .00000391  00000-0  19611-3 0  9990,2 25420  44.9996 308.5356 0006315 246.3985 142.6202 14.32027798895730
1 25420U 98046H   15277.47273648  .00000352  00000-0  18162-3 0  9994,2 25420  44.9994 302.5351 0006346 252.1653 251.0655 14.32028988895917
1 25420U 98046H   15278.52267718  .00000313  00000-0  16718-3 0  9994,2 25420  44.9993 297.6049 0006372 256.9898 264.2312 14.32029912896067
1 25420U 98046H   15278.59065032 +.00000291 +00000-0 +15920-3 0  9995,2 25420 044.9993 297.2858 0006372 257.3321 254.6492 14.32029843894981
1 25420U 98046H   15279.56770148  .00000270  00000-0  15134-3 0  9998,2 25420  44.9993 292.6977 0006390 261.7357 252.1077 14.32030642896219
1 25420U 98046H   15280.54233568  .00000316  00000-0  16837-3 0  9990,2 25420  44.9993 288.1210 0006425 266.1799 237.0832 14.32037558896356
1 25420U 98046H   15281.51869405 +.00000319 +00000-0 +16955-3 0  9997,2 25420 044.9992 283.5362 0006428 270.5027 231.0742 14.32038371895401
1 25420U 98046H   15282.96072964 +.00000274 +00000-0 +15276-3 0  9998,2 25420 044.9992 276.7646 0006421 276.9986 105.9374 14.32039328895613
1 25420U 98046H   15284.37319950  .00000244  00000-0  14195-3 0  9990,2 25420  44.9991 270.1321 0006385 283.4918 188.2409 14.32040417896904
1 25420U 98046H   15285.49706647  .00000234  00000-0  13794-3 0  9990,2 25420  44.9990 264.8547 0006356 288.6447 222.6060 14.32041412897065
1 25420U 98046H   15285.96250748 +.00000233 +00000-0 +13782-3 0  9994,2 25420 044.9990 262.6691 0006347 290.7410 102.3377 14.32041866896040
1 25420U 98046H   15287.15478226  .00000230  00000-0  13675-3 0  9998,2 25420  44.9990 257.0704 0006301 295.9857 129.6236 14.32042945897300
1 25420U 98046H   15288.35887078  .00000319  00000-0  16960-3 0  9998,2 25420  44.9990 251.4163 0006249 301.5089 217.5988 14.32044489897473
1 25420U 98046H   15289.40222627  .00000423  00000-0  20776-3 0  9994,2 25420  44.9991 246.5169 0006202 306.1942 196.9815 14.32046025897627
1 25420U 98046H   15289.86458503 +.00000440 +00000-0 +21425-3 0  9999,2 25420 044.9990 244.3457 0006180 308.5328 060.5715 14.32046521896604
1 25420U 98046H   15290.84388330  .00000504  00000-0  23755-3 0  9998,2 25420  44.9991 239.7471 0006129 312.8349  69.7876 14.32047928897830
1 25420U 98046H   15290.91830758 +.00000534 +00000-0 +24860-3 0  9993,2 25420 044.9991 239.3976 0006122 313.2351 093.4431 14.32048202896754
1 25420U 98046H   15291.89115525  .00000600  00000-0  27329-3 0  9996,2 25420  44.9991 234.8293 0006060 317.7937  69.1218 14.32049818897989
1 25420U 98046H   15293.23999370  .00000702  00000-0  31055-3 0  9998,2 25420  44.9991 228.4955 0005966 324.2995 183.1088 14.32052439898171
1 25420U 98046H   15294.41682012  .00000733  00000-0  32206-3 0  9994,2 25420  44.9991 222.9695 0005888 329.9276 130.3405 14.32054744898345
1 25420U 98046H   15294.89518050 +.00000758 +00000-0 +33126-3 0  9995,2 25420 044.9991 220.7233 0005856 332.1266 076.6617 14.32055832897322
1 25420U 98046H   15295.79859182  .00000034  00000-0  64288-4 0  9990,2 25420  44.9991 216.4809 0005775 336.2976  54.4475 14.32059975898549
1 25420U 98046H   15295.87188525 +.00000039 +00000-0 +66140-4 0  9999,2 25420 044.9991 216.1367 0005771 336.6950 072.2732 14.32060089897469
1 25420U 98046H   15296.84817442  .00000033  00000-0  63761-4 0  9994,2 25420  44.9991 211.5520 0005686 341.7317  65.2738 14.32060742898698
1 25420U 98046H   15298.19491291  .00000597  00000-0  27190-3 0  9994,2 25420  44.9989 205.2280 0005578 348.2716 168.4510 14.32064155898880
1 25420U 98046H   15299.23837565  .00000531  00000-0  24769-3 0  9995,2 25420  44.9988 200.3280 0005492 353.6244 147.7922 14.32065242899039
1 25420U 98046H   15299.91978101 +.00000528 +00000-0 +24632-3 0  9997,2 25420 044.9987 197.1280 0005429 357.0440 060.7059 14.32066151898042
1 25420U 98046H   15300.90456880  .00000499  00000-0  23583-3 0  9995,2 25420  44.9986 192.5035 0005350   2.2086  97.4568 14.32067327899270
1 25420U 98046H   15302.16701689  .00000426  00000-0  20870-3 0  9991,2 25420  44.9986 186.5751 0005247   8.9340 125.4947 14.32068523899451
1 25420U 98046H   15303.21698319  .00000378  00000-0  19104-3 0  9997,2 25420  44.9985 181.6446 0005166  14.6789 138.0228 14.32069593899605
1 25420U 98046H   15304.45406265  .00000341  00000-0  17746-3 0  9991,2 25420  44.9985 175.8353 0005069  21.4297  35.1334 14.32070846899786
1 25420U 98046H   15304.73163091 +.00000334 +00000-0 +17509-3 0  9998,2 25420 044.9984 174.5318 0005041 022.9193 026.0159 14.32071105898730
1 25420U 98046H   15305.79267575  .00000415  00000-0  20493-3 0  9993,2 25420  44.9983 169.5492 0004964  28.7713  95.6167 14.32072671899978
1 25420U 98046H   15305.85059563 +.00000421 +00000-0 +20709-3 0  9993,2 25420 044.9983 169.2772 0004958 029.0607 034.2194 14.32072772898896
1 25420U 98046H   15306.82651334  .00000462  00000-0  22199-3 0  9995,2 25420  44.9981 164.6943 0004888  34.7133  24.7307 14.32073971900124
1 25420U 98046H   15306.90047272 +.00000370 +00000-0 +18817-3 0  9994,2 25420 044.9981 164.3470 0004883 035.1417 045.9650 14.32073537899043
1 25420U 98046H   15308.09808433  .00000454  00000-0  21924-3 0  9996,2 25420  44.9979 158.7229 0004809  42.1578  99.1563 14.32075185900300
1 25420U 98046H   15308.93364369 +.00000481 +00000-0 +22925-3 0  9996,2 25420 044.9978 154.7990 0004762 046.9905 086.1839 14.32076174899335
1 25420U 98046H   15309.75569277  .00000409  00000-0  20278-3 0  9991,2 25420  44.9977 150.9385 0004719  51.8683   3.4488 14.32076591900541
1 25420U 98046H   15309.91002682 +.00000408 +00000-0 +20229-3 0  9996,2 25420 044.9977 150.2137 0004711 052.7968 078.9539 14.32076743899479
1 25420U 98046H   15310.96058363 +.00000368 +00000-0 +18762-3 0  9994,2 25420 044.9977 145.2801 0004659 059.1353 093.9654 14.32077604899620
1 25420U 98046H   15312.00983678  .00000381  00000-0  19213-3 0  9994,2 25420  44.9978 140.3525 0004621  65.4852 102.2449 14.32078954900867
1 25420U 98046H   15313.51801154  .00000375  00000-0  19015-3 0  9992,2 25420  44.9979 133.2698 0004559  74.8167 315.7959 14.32080703901080
1 25420U 98046H   15313.89088672 +.00000368 +00000-0 +18755-3 0  9997,2 25420 044.9979 131.5188 0004551 077.1050 077.7181 14.32081095900046
1 25420U 98046H   15314.86438301  .00000380  00000-0  19204-3 0  9997,2 25420  44.9980 126.9471 0004527  83.0759  55.4466 14.32082269901275
1 25420U 98046H   15314.93803095 +.00000433 +00000-0 +21135-3 0  9996,2 25420 044.9980 126.6012 0004527 083.4786 075.1029 14.32082676900193
1 25420U 98046H   15315.91426961  .00000415  00000-0  20495-3 0  9996,2 25420  44.9981 122.0166 0004513  89.5428  66.8944 14.32083663901426
1 25420U 98046H   15316.95774443  .00000370  00000-0  18805-3 0  9994,2 25420  44.9982 117.1162 0004510  95.8700  45.3974 14.32084533901576
1 25420U 98046H   15318.47418255  .00000457  00000-0  22028-3 0  9997,2 25420  44.9983 109.9947 0004523 105.0224 301.8030 14.32086770901798
1 25420U 98046H   15319.53241105  .00000429  00000-0  21001-3 0  9992,2 25420  44.9983 105.0250 0004549 112.6183 355.1558 14.32076348901942
1 25420U 98046H   15319.88660019 +.00000403 +00000-0 +20044-3 0  9997,2 25420 044.9984 103.3618 0004550 114.3920 021.1587 14.32076817900900
1 25420U 98046H   15320.71394777  .00000473  00000-0  22619-3 0  9993,2 25420  44.9985  99.4765 0004570 119.4329 325.6112 14.32078437902111
1 25420U 98046H   15320.86335811 +.00000469 +00000-0 +22486-3 0  9990,2 25420 044.9985 098.7748 0004577 120.2708 015.7994 14.32078635901048
1 25420U 98046H   15321.91346800  .00000611  00000-0  27715-3 0  9996,2 25420  44.9988  93.8433 0004614 126.4544  28.6715 14.32080825902281
1 25420U 98046H   15323.14998071  .00000595  00000-0  27098-3 0  9991,2 25420  44.9991  88.0366 0004647 133.9547 282.1593 14.32082752902460
1 25420U 98046H   15324.19869758  .00000548  00000-0  25374-3 0  9999,2 25420  44.9994  83.1118 0004687 140.1653 287.8285 14.32084145902611
1 25420U 98046H   15325.52240376  .00000614  00000-0  27798-3 0  9992,2 25420  44.9996  76.8958 0004750 147.7996 271.1603 14.32086624902803
1 25420U 98046H   15325.81737765 +.00000581 +00000-0 +26595-3 0  9994,2 25420 044.9996 075.5106 0004764 149.4330 351.7358 14.32086869901756
1 25420U 98046H   15326.79334836  .00000565  00000-0  26018-3 0  9996,2 25420  44.9997  70.9275 0004820 155.0006 342.6562 14.32088206902988
